[{"OBJECT_NAME":"PRAETORIAN SDA_617","OBJECT_ID":"2025-203R","EPOCH":"2026-04-05T21:14:46.450176","MEAN_MOTION":13.83194982,"ECCENTRICITY":0.0008309,"INCLINATION":81.3007,"RA_OF_ASC_NODE":77.7422,"ARG_OF_PERICENTER":35.4475,"MEAN_ANOMALY":324.7232,"EPHEMERIS_TYPE":0,"CLASSIFICATION_TYPE":"U","NORAD_CAT_ID":65580,"ELEMENT_SET_NO":999,"REV_AT_EPOCH":2869,"BSTAR":5.0268e-5,"MEAN_MOTION_DOT":6.7e-7,"MEAN_MOTION_DDOT":0},{"OBJECT_NAME":"PRAETORIAN SDA_618","OBJECT_ID":"2025-203S","EPOCH":"2026-04-05T20:49:55.168896","MEAN_MOTION":13.84764678,"ECCENTRICITY":0.0010579,"INCLINATION":81.2996,"RA_OF_ASC_NODE":77.5281,"ARG_OF_PERICENTER":34.8219,"MEAN_ANOMALY":325.3628,"EPHEMERIS_TYPE":0,"CLASSIFICATION_TYPE":"U","NORAD_CAT_ID":65581,"ELEMENT_SET_NO":999,"REV_AT_EPOCH":2870,"BSTAR":0.00032328,"MEAN_MOTION_DOT":3.76e-6,"MEAN_MOTION_DDOT":0},{"OBJECT_NAME":"PRAETORIAN SDA_619","OBJECT_ID":"2025-203T","EPOCH":"2026-04-05T15:26:20.027904","MEAN_MOTION":13.83934681,"ECCENTRICITY":0.0008834,"INCLINATION":81.3015,"RA_OF_ASC_NODE":77.9213,"ARG_OF_PERICENTER":34.2913,"MEAN_ANOMALY":325.8812,"EPHEMERIS_TYPE":0,"CLASSIFICATION_TYPE":"U","NORAD_CAT_ID":65582,"ELEMENT_SET_NO":999,"REV_AT_EPOCH":2929,"BSTAR":0.0002693,"MEAN_MOTION_DOT":3.11e-6,"MEAN_MOTION_DDOT":0},{"OBJECT_NAME":"PRAETORIAN SDA_620","OBJECT_ID":"2025-203U","EPOCH":"2026-04-05T20:58:08.956128","MEAN_MOTION":13.83709328,"ECCENTRICITY":0.0008338,"INCLINATION":81.3003,"RA_OF_ASC_NODE":77.7085,"ARG_OF_PERICENTER":33.5956,"MEAN_ANOMALY":326.5728,"EPHEMERIS_TYPE":0,"CLASSIFICATION_TYPE":"U","NORAD_CAT_ID":65583,"ELEMENT_SET_NO":999,"REV_AT_EPOCH":2869,"BSTAR":0.00028681,"MEAN_MOTION_DOT":3.29e-6,"MEAN_MOTION_DDOT":0},{"OBJECT_NAME":"PRAETORIAN SDA_621","OBJECT_ID":"2025-203V","EPOCH":"2026-04-05T15:20:31.860096","MEAN_MOTION":13.83791149,"ECCENTRICITY":0.0008116,"INCLINATION":81.2993,"RA_OF_ASC_NODE":77.8692,"ARG_OF_PERICENTER":30.6111,"MEAN_ANOMALY":329.5518,"EPHEMERIS_TYPE":0,"CLASSIFICATION_TYPE":"U","NORAD_CAT_ID":65584,"ELEMENT_SET_NO":999,"REV_AT_EPOCH":2866,"BSTAR":6.7044e-5,"MEAN_MOTION_DOT":8.6e-7,"MEAN_MOTION_DDOT":0},{"OBJECT_NAME":"PRAETORIAN SDA_601","OBJECT_ID":"2025-203W","EPOCH":"2026-04-05T10:33:35.117856","MEAN_MOTION":13.8342169,"ECCENTRICITY":0.00065109,"INCLINATION":81.301,"RA_OF_ASC_NODE":78.2842,"ARG_OF_PERICENTER":47.8786,"MEAN_ANOMALY":312.2923,"EPHEMERIS_TYPE":0,"CLASSIFICATION_TYPE":"U","NORAD_CAT_ID":65585,"ELEMENT_SET_NO":999,"REV_AT_EPOCH":2862,"BSTAR":8.5412985e-5,"MEAN_MOTION_DOT":1.06e-6,"MEAN_MOTION_DDOT":0}]
