PRAETORIAN SDA_617      
1 65580U 25203R   26095.88525984  .00000067  00000+0  50268-4 0  9994
2 65580  81.3007  77.7422 0008309  35.4475 324.7232 13.83194982 28698
PRAETORIAN SDA_618      
1 65581U 25203S   26095.86799964  .00000376  00000+0  32328-3 0  9993
2 65581  81.2996  77.5281 0010579  34.8219 325.3628 13.84764678 28701
PRAETORIAN SDA_619      
1 65582U 25203T   26095.64328736  .00000311  00000+0  26930-3 0  9996
2 65582  81.3015  77.9213 0008834  34.2913 325.8812 13.83934681 29297
PRAETORIAN SDA_620      
1 65583U 25203U   26095.87371477  .00000329  00000+0  28681-3 0  9996
2 65583  81.3003  77.7085 0008338  33.5956 326.5728 13.83709328 28693
PRAETORIAN SDA_621      
1 65584U 25203V   26095.63925764  .00000086  00000+0  67044-4 0  9992
2 65584  81.2993  77.8692 0008116  30.6111 329.5518 13.83791149 28660
PRAETORIAN SDA_601      
1 65585U 25203W   26095.43998979  .00000106  00000+0  85413-4 0  9992
2 65585  81.3010  78.2842 0006510  47.8786 312.2923 13.83421690 28624
